{
  "norad_id": 67047,
  "name": "STARLINK-35779",
  "history": [
    {
      "epoch": "2026-03-28T20:53:54.604032Z",
      "apogee_km": 485.0727176816572,
      "perigee_km": 481.01432940198083,
      "latitude_deg": -2.81825667571388e-06,
      "longitude_deg": 149.90927333593663,
      "height_km": 482.63761495896165,
      "semi_major_axis_km": 6861.180523541819,
      "eccentricity": 0.00029575,
      "inclination_deg": 42.9994,
      "raan_deg": 289.6718,
      "arg_perigee_deg": 275.1936,
      "mean_anomaly_deg": 84.8578,
      "mean_motion_rev_day": 15.27581861
    },
    {
      "epoch": "2026-03-29T22:00:25.220448Z",
      "apogee_km": 484.1804326439433,
      "perigee_km": 481.9185739012746,
      "latitude_deg": -3.588858272832848e-05,
      "longitude_deg": 126.33950044199729,
      "height_km": 482.9301306140148,
      "semi_major_axis_km": 6861.186503272609,
      "eccentricity": 0.00016483,
      "inclination_deg": 42.9995,
      "raan_deg": 283.7608,
      "arg_perigee_deg": 264.734,
      "mean_anomaly_deg": 95.3323,
      "mean_motion_rev_day": 15.27579864
    },
    {
      "epoch": "2026-03-30T13:41:59.734464Z",
      "apogee_km": 483.26854833387733,
      "perigee_km": 482.753276125668,
      "latitude_deg": 4.541819665651311e-05,
      "longitude_deg": -113.38910589228978,
      "height_km": 482.5361056203956,
      "semi_major_axis_km": 6861.147912229772,
      "eccentricity": 3.755e-05,
      "inclination_deg": 42.9996,
      "raan_deg": 280.0704,
      "arg_perigee_deg": 346.2837,
      "mean_anomaly_deg": 13.8005,
      "mean_motion_rev_day": 15.27592752
    },
    {
      "epoch": "2026-03-30T21:32:46.401792Z",
      "apogee_km": 484.11417216384143,
      "perigee_km": 481.9240911266206,
      "latitude_deg": 6.222055939727205e-06,
      "longitude_deg": 126.74686953799318,
      "height_km": 482.7450363331047,
      "semi_major_axis_km": 6861.156131645231,
      "eccentricity": 0.0001596,
      "inclination_deg": 43.0006,
      "raan_deg": 278.2231,
      "arg_perigee_deg": 272.6709,
      "mean_anomaly_deg": 87.396,
      "mean_motion_rev_day": 15.27590007
    },
    {
      "epoch": "2026-03-31T19:30:57.641760Z",
      "apogee_km": 484.14432858684813,
      "perigee_km": 481.7978296237943,
      "latitude_deg": 1.664166752186657e-05,
      "longitude_deg": 151.12788154006313,
      "height_km": 482.77943413730725,
      "semi_major_axis_km": 6861.108079105321,
      "eccentricity": 0.000171,
      "inclination_deg": 43.0018,
      "raan_deg": 273.0532,
      "arg_perigee_deg": 268.4756,
      "mean_anomaly_deg": 91.59,
      "mean_motion_rev_day": 15.27606055
    },
    {
      "epoch": "2026-04-01T19:03:18.442944Z",
      "apogee_km": 484.5982780743798,
      "perigee_km": 481.42979852489225,
      "latitude_deg": 9.862058425807496e-06,
      "longitude_deg": 151.53538699617135,
      "height_km": 482.520769615045,
      "semi_major_axis_km": 6861.151038299636,
      "eccentricity": 0.0002309,
      "inclination_deg": 43.0004,
      "raan_deg": 267.5141,
      "arg_perigee_deg": 279.8393,
      "mean_anomaly_deg": 80.2198,
      "mean_motion_rev_day": 15.27591708
    },
    {
      "epoch": "2026-04-02T18:35:38.984064Z",
      "apogee_km": 483.8626877840261,
      "perigee_km": 482.14054199168913,
      "latitude_deg": 2.3751318195600738e-05,
      "longitude_deg": 151.9426006180582,
      "height_km": 482.67865187976065,
      "semi_major_axis_km": 6861.138614887857,
      "eccentricity": 0.0001255,
      "inclination_deg": 42.9956,
      "raan_deg": 261.9736,
      "arg_perigee_deg": 276.6058,
      "mean_anomaly_deg": 83.4651,
      "mean_motion_rev_day": 15.27595857
    },
    {
      "epoch": "2026-04-02T18:35:38.984928Z",
      "apogee_km": 483.8626877840261,
      "perigee_km": 482.14054199168913,
      "latitude_deg": 2.3741617072869885e-05,
      "longitude_deg": 151.94259699786966,
      "height_km": 482.6786518808078,
      "semi_major_axis_km": 6861.138614887857,
      "eccentricity": 0.0001255,
      "inclination_deg": 42.9956,
      "raan_deg": 261.9736,
      "arg_perigee_deg": 276.6058,
      "mean_anomaly_deg": 83.4651,
      "mean_motion_rev_day": 15.27595857
    },
    {
      "epoch": "2026-04-03T19:42:08.465184Z",
      "apogee_km": 484.24379596628296,
      "perigee_km": 481.6599099042678,
      "latitude_deg": 1.1797461299749863e-05,
      "longitude_deg": 128.3795932719614,
      "height_km": 482.7188911044192,
      "semi_major_axis_km": 6861.088852935275,
      "eccentricity": 0.0001883,
      "inclination_deg": 42.9995,
      "raan_deg": 256.0646,
      "arg_perigee_deg": 270.443,
      "mean_anomaly_deg": 89.6206,
      "mean_motion_rev_day": 15.27612476
    },
    {
      "epoch": "2026-04-04T19:14:29.669856Z",
      "apogee_km": 483.8608064504315,
      "perigee_km": 482.1290567508968,
      "latitude_deg": 2.672446663880152e-06,
      "longitude_deg": 128.7862084060377,
      "height_km": 482.9454411472618,
      "semi_major_axis_km": 6861.131931600664,
      "eccentricity": 0.0001262,
      "inclination_deg": 42.9992,
      "raan_deg": 250.5263,
      "arg_perigee_deg": 258.4032,
      "mean_anomaly_deg": 101.6678,
      "mean_motion_rev_day": 15.27598089
    },
    {
      "epoch": "2026-04-05T10:56:04.766208Z",
      "apogee_km": 483.5815591707351,
      "perigee_km": 482.7310332537372,
      "latitude_deg": -3.830174695095309e-05,
      "longitude_deg": -110.94626308974297,
      "height_km": 482.85848486201064,
      "semi_major_axis_km": 6861.293296212236,
      "eccentricity": 6.198e-05,
      "inclination_deg": 42.9967,
      "raan_deg": 246.8346,
      "arg_perigee_deg": 279.9482,
      "mean_anomaly_deg": 80.1299,
      "mean_motion_rev_day": 15.275442
    },
    {
      "epoch": "2026-04-05T17:12:42.670656Z",
      "apogee_km": 484.094888137035,
      "perigee_km": 482.1810041035651,
      "latitude_deg": 3.443517895915017e-06,
      "longitude_deg": 153.1603504992362,
      "height_km": 482.8677621587079,
      "semi_major_axis_km": 6861.2749461203,
      "eccentricity": 0.00013947,
      "inclination_deg": 43.0002,
      "raan_deg": 245.3569,
      "arg_perigee_deg": 272.8099,
      "mean_anomaly_deg": 87.2593,
      "mean_motion_rev_day": 15.27550328
    },
    {
      "epoch": "2026-04-07T10:00:46.296000Z",
      "apogee_km": 483.2823596405615,
      "perigee_km": 482.6477077024465,
      "latitude_deg": 5.860938033749752e-06,
      "longitude_deg": -110.12859455115125,
      "height_km": 482.7033920737731,
      "semi_major_axis_km": 6861.102033671504,
      "eccentricity": 4.625e-05,
      "inclination_deg": 42.9969,
      "raan_deg": 235.7587,
      "arg_perigee_deg": 276.725,
      "mean_anomaly_deg": 83.3549,
      "mean_motion_rev_day": 15.27608074
    },
    {
      "epoch": "2026-04-08T15:49:44.583456Z",
      "apogee_km": 484.1025890222418,
      "perigee_km": 482.00457416620156,
      "latitude_deg": 1.2125541042194977e-05,
      "longitude_deg": 154.38663653174348,
      "height_km": 482.6956307862919,
      "semi_major_axis_km": 6861.190581594221,
      "eccentricity": 0.00015289,
      "inclination_deg": 43.0001,
      "raan_deg": 228.7413,
      "arg_perigee_deg": 277.3818,
      "mean_anomaly_deg": 82.686,
      "mean_motion_rev_day": 15.27578502
    },
    {
      "epoch": "2026-04-09T15:22:05.318976Z",
      "apogee_km": 483.8049770327252,
      "perigee_km": 482.19535425366485,
      "latitude_deg": -1.1964014495268825e-05,
      "longitude_deg": 154.79329372116743,
      "height_km": 482.6383296933793,
      "semi_major_axis_km": 6861.137165643195,
      "eccentricity": 0.0001173,
      "inclination_deg": 43.0008,
      "raan_deg": 223.2011,
      "arg_perigee_deg": 279.905,
      "mean_anomaly_deg": 80.1669,
      "mean_motion_rev_day": 15.27596341
    },
    {
      "epoch": "2026-04-10T08:37:48.571680Z",
      "apogee_km": 484.56069018941434,
      "perigee_km": 481.47454284290507,
      "latitude_deg": 2.7529970680700925e-05,
      "longitude_deg": -108.90761141333613,
      "height_km": 482.4173712382958,
      "semi_major_axis_km": 6861.154616516159,
      "eccentricity": 0.0002249,
      "inclination_deg": 42.9976,
      "raan_deg": 219.1393,
      "arg_perigee_deg": 284.1543,
      "mean_anomaly_deg": 75.9059,
      "mean_motion_rev_day": 15.27590513
    },
    {
      "epoch": "2026-04-11T16:00:57.351744Z",
      "apogee_km": 484.02455850981096,
      "perigee_km": 482.20769868135903,
      "latitude_deg": -4.939292701303325e-05,
      "longitude_deg": 131.63075251643653,
      "height_km": 482.7938648522696,
      "semi_major_axis_km": 6861.253128595585,
      "eccentricity": 0.0001324,
      "inclination_deg": 42.9983,
      "raan_deg": 211.7533,
      "arg_perigee_deg": 276.2392,
      "mean_anomaly_deg": 83.8308,
      "mean_motion_rev_day": 15.27557614
    },
    {
      "epoch": "2026-04-13T07:14:52.215936Z",
      "apogee_km": 483.9293926684704,
      "perigee_km": 482.03366561886924,
      "latitude_deg": -1.9078706602433126e-05,
      "longitude_deg": -107.69021396032596,
      "height_km": 482.75064537634097,
      "semi_major_axis_km": 6861.11852914367,
      "eccentricity": 0.00013815,
      "inclination_deg": 42.9987,
      "raan_deg": 202.5221,
      "arg_perigee_deg": 270.4489,
      "mean_anomaly_deg": 89.6204,
      "mean_motion_rev_day": 15.27602565
    },
    {
      "epoch": "2026-04-14T13:03:49.492512Z",
      "apogee_km": 483.80984647389414,
      "perigee_km": 482.1801903968744,
      "latitude_deg": 2.8182966859739845e-06,
      "longitude_deg": 156.82736230562165,
      "height_km": 482.8389669969297,
      "semi_major_axis_km": 6861.1320184353835,
      "eccentricity": 0.00011876,
      "inclination_deg": 42.9976,
      "raan_deg": 195.5028,
      "arg_perigee_deg": 265.2335,
      "mean_anomaly_deg": 94.8381,
      "mean_motion_rev_day": 15.2759806
    },
    {
      "epoch": "2026-04-15T12:36:10.378368Z",
      "apogee_km": 483.6508467545618,
      "perigee_km": 482.4011545256253,
      "latitude_deg": -4.45039103498552e-06,
      "longitude_deg": 157.2379139709146,
      "height_km": 482.8779890839994,
      "semi_major_axis_km": 6861.163000640093,
      "eccentricity": 9.107e-05,
      "inclination_deg": 43.003,
      "raan_deg": 189.9671,
      "arg_perigee_deg": 263.0701,
      "mean_anomaly_deg": 97.0047,
      "mean_motion_rev_day": 15.27587713
    },
    {
      "epoch": "2026-04-16T13:42:40.345056Z",
      "apogee_km": 484.01587842040135,
      "perigee_km": 482.03300276407026,
      "latitude_deg": -5.776764255573309e-06,
      "longitude_deg": 133.6729911575247,
      "height_km": 482.76940114895154,
      "semi_major_axis_km": 6861.1614405922355,
      "eccentricity": 0.0001445,
      "inclination_deg": 42.9995,
      "raan_deg": 184.0582,
      "arg_perigee_deg": 271.8338,
      "mean_anomaly_deg": 88.2348,
      "mean_motion_rev_day": 15.27588234
    },
    {
      "epoch": "2026-04-17T21:05:48.256800Z",
      "apogee_km": 484.1144137552128,
      "perigee_km": 481.9314671085649,
      "latitude_deg": 3.392065624647582e-05,
      "longitude_deg": 14.213511764646153,
      "height_km": 482.6714956659333,
      "semi_major_axis_km": 6861.159940431889,
      "eccentricity": 0.00015908,
      "inclination_deg": 42.9978,
      "raan_deg": 176.6706,
      "arg_perigee_deg": 276.738,
      "mean_anomaly_deg": 83.3291,
      "mean_motion_rev_day": 15.27588735
    },
    {
      "epoch": "2026-04-18T20:38:08.505888Z",
      "apogee_km": 484.12855054036754,
      "perigee_km": 481.8561445004689,
      "latitude_deg": 8.387084494742543e-07,
      "longitude_deg": 14.62329475703344,
      "height_km": 482.640213917447,
      "semi_major_axis_km": 6861.1293475204175,
      "eccentricity": 0.0001656,
      "inclination_deg": 42.997,
      "raan_deg": 171.1315,
      "arg_perigee_deg": 276.5048,
      "mean_anomaly_deg": 83.5615,
      "mean_motion_rev_day": 15.27598952
    }
  ]
}